NORAD_CAT_ID,OBJECT_NAME,OBJECT_TYPE,EPOCH,MEAN_MOTION,ECCENTRICITY,INCLINATION,RA_OF_ASC_NODE,ARG_OF_PERICENTER,MEAN_ANOMALY,BSTAR,MEAN_MOTION_DOT,MEAN_MOTION_DDOT,TLE_LINE0,TLE_LINE1,TLE_LINE2,SEMIMAJOR_AXIS,PERIOD,APOGEE,PERIGEE,DECAYED
50825.0,STARLINK-3332,PAYLOAD,2024-05-20 12:27:48,15.08860074,0.0001091,53.2168,243.7608,112.6494,247.4614,0.0022349,0.00035479,0.0,0 STARLINK-3332,1 50825U 22001Y   24141.51931536  .00035479  00000-0  22349-2 0  9990,2 50825  53.2168 243.7608 0001091 112.6494 247.4614 15.08860074132312,6917.819,95.436,540.439,538.929,0.0
50825.0,STARLINK-3332,PAYLOAD,2024-05-21 12:18:35,15.08854867,0.0001017,53.2173,239.2981,114.9882,245.1215,0.00036103,5.465e-05,0.0,0 STARLINK-3332,1 50825U 22001Y   24142.51290744  .00005465  00000-0  36103-3 0  9996,2 50825  53.2173 239.2981 0001017 114.9882 245.1215 15.08854867132467,6917.835,95.437,540.403,538.996,0.0
50825.0,STARLINK-3332,PAYLOAD,2024-05-21 13:53:58,15.08852275,0.0001019,53.217,239.0017,95.7264,264.3845,0.0001137,1.523e-05,0.0,0 STARLINK-3332,1 50825U 22001Y   24142.57914747  .00001523  00000-0  11370-3 0  9998,2 50825  53.2170 239.0017 0001019  95.7264 264.3845 15.08852275131208,6917.843,95.437,540.413,539.003,0.0
50825.0,STARLINK-3332,PAYLOAD,2024-05-22 12:09:22,15.08844142,0.0001109,53.2174,234.8408,89.8737,270.2382,2.9186e-05,1.77e-06,0.0,0 STARLINK-3332,1 50825U 22001Y   24143.50650926  .00000177  00000-0  29186-4 0  9997,2 50825  53.2174 234.8408 0001109  89.8737 270.2382 15.08844142132610,6917.868,95.437,540.5,538.966,0.0
50825.0,STARLINK-3332,PAYLOAD,2024-05-23 12:00:09,15.08845595,0.000116,53.2175,230.3811,67.5369,292.5746,9.8381e-05,1.278e-05,0.0,0 STARLINK-3332,1 50825U 22001Y   24144.50010757  .00001278  00000-0  98381-4 0  9996,2 50825  53.2175 230.3811 0001160  67.5369 292.5746 15.08845595131490,6917.863,95.437,540.531,538.926,0.0
50825.0,STARLINK-3332,PAYLOAD,2024-05-24 05:29:23,15.08846406,0.0001121,53.2174,227.1091,109.7726,250.3387,0.00011798,1.591e-05,0.0,0 STARLINK-3332,1 50825U 22001Y   24145.22874217  .00001591  00000-0  11798-3 0  9999,2 50825  53.2174 227.1091 0001121 109.7726 250.3387 15.08846406132874,6917.861,95.437,540.501,538.95,0.0
50825.0,STARLINK-3332,PAYLOAD,2024-05-24 11:50:55,15.08848706,0.0001145,53.2173,225.9196,107.3098,252.8019,0.00013052,1.79e-05,0.0,0 STARLINK-3332,1 50825U 22001Y   24145.49369952  .00001790  00000-0  13052-3 0  9999,2 50825  53.2173 225.9196 0001145 107.3098 252.8019 15.08848706131645,6917.854,95.437,540.511,538.927,0.0
50825.0,STARLINK-3332,PAYLOAD,2024-05-24 15:01:41,15.08851261,0.0001234,53.2172,225.324,121.1101,239.0012,0.00014434,2.011e-05,0.0,0 STARLINK-3332,1 50825U 22001Y   24145.62617615  .00002011  00000-0  14434-3 0  9998,2 50825  53.2172 225.3240 0001234 121.1101 239.0012 15.08851261131668,6917.846,95.437,540.565,538.857,0.0
50825.0,STARLINK-3332,PAYLOAD,2024-05-25 11:41:43,15.08844606,0.0001159,53.2176,221.4606,95.2512,264.8612,-0.00024785,-4.231e-05,0.0,0 STARLINK-3332,1 50825U 22001Y   24146.48730868 -.00004231  00000-0 -24785-3 0  9997,2 50825  53.2176 221.4606 0001159  95.2512 264.8612 15.08844606133061,6917.866,95.437,540.533,538.93,0.0
50825.0,STARLINK-3332,PAYLOAD,2024-05-26 11:32:30,15.08839748,0.0001131,53.2173,217.0001,94.3301,265.782,2.909e-05,1.75e-06,0.0,0 STARLINK-3332,1 50825U 22001Y   24147.48090668  .00000175  00000-0  29090-4 0  9991,2 50825  53.2173 217.0001 0001131  94.3301 265.7820 15.08839748131941,6917.881,95.438,540.529,538.964,0.0
50825.0,STARLINK-3332,PAYLOAD,2024-05-26 21:04:49,15.08839105,0.000234,53.2178,215.2339,159.6469,200.4617,-5.4872e-05,-1.162e-05,0.0,0 STARLINK-3332,1 50825U 22001Y   24147.87834700 -.00001162  00000-0 -54872-4 0  9992,2 50825  53.2178 215.2339 0002340 159.6469 200.4617 15.08839105133278,6917.883,95.438,541.367,538.129,0.0
50825.0,STARLINK-3332,PAYLOAD,2024-05-27 05:01:45,15.08819876,9.56e-05,53.2189,213.7378,80.5612,279.5488,0.00027534,4.095e-05,0.0,0 STARLINK-3332,1 50825U 22001Y   24148.20955268  .00004095  00000-0  27534-3 0  9993,2 50825  53.2189 213.7378 0000956  80.5612 279.5488 15.08819876133321,6917.942,95.439,540.468,539.146,0.0
50825.0,STARLINK-3332,PAYLOAD,2024-05-27 11:23:17,15.08831126,0.0001103,53.2171,212.5369,86.631,273.4808,0.00010451,1.375e-05,0.0,0 STARLINK-3332,1 50825U 22001Y   24148.47451176  .00001375  00000-0  10451-3 0  9999,2 50825  53.2171 212.5369 0001103  86.6310 273.4808 15.08831126132090,6917.908,95.438,540.536,539.009,0.0
50825.0,STARLINK-3332,PAYLOAD,2024-05-28 03:17:09,15.08837038,0.0001105,53.2169,209.5639,91.0582,269.0537,6.0805e-05,6.8e-06,0.0,0 STARLINK-3332,1 50825U 22001Y   24149.13691154  .00000680  00000-0  60805-4 0  9992,2 50825  53.2169 209.5639 0001105  91.0582 269.0537 15.08837038133466,6917.889,95.438,540.519,538.99,0.0
50825.0,STARLINK-3332,PAYLOAD,2024-05-28 09:38:41,15.08838683,0.0001056,53.2165,208.3759,91.0245,269.0868,5.7829e-05,6.33e-06,0.0,0 STARLINK-3332,1 50825U 22001Y   24149.40187067  .00000633  00000-0  57829-4 0  9995,2 50825  53.2165 208.3759 0001056  91.0245 269.0868 15.08838683132231,6917.884,95.438,540.48,539.019,0.0
50825.0,STARLINK-3332,PAYLOAD,2024-05-28 11:14:04,15.08838776,0.0001094,53.2167,208.0781,92.0826,268.0291,6.9439e-05,8.17e-06,0.0,0 STARLINK-3332,1 50825U 22001Y   24149.46811041  .00000817  00000-0  69439-4 0  9991,2 50825  53.2167 208.0781 0001094  92.0826 268.0291 15.08838776132246,6917.884,95.438,540.506,538.992,0.0
50825.0,STARLINK-3332,PAYLOAD,2024-05-29 12:40:15,15.08838192,0.0001081,53.2165,203.3207,87.2032,272.9084,5.3457e-05,5.63e-06,0.0,0 STARLINK-3332,1 50825U 22001Y   24150.52795218  .00000563  00000-0  53457-4 0  9998,2 50825  53.2165 203.3207 0001081  87.2032 272.9084 15.08838192133670,6917.886,95.438,540.499,539.003,0.0
50825.0,STARLINK-3332,PAYLOAD,2024-05-30 10:55:38,15.08842136,0.0001149,53.2167,199.1581,87.5413,272.5711,6.6866e-05,7.77e-06,0.0,0 STARLINK-3332,1 50825U 22001Y   24151.45531013  .00000777  00000-0  66866-4 0  9997,2 50825  53.2167 199.1581 0001149  87.5413 272.5711 15.08842136132541,6917.874,95.437,540.534,538.944,0.0
50825.0,STARLINK-3332,PAYLOAD,2024-05-31 02:49:29,15.0884372,0.0001198,53.2167,196.1851,85.1059,275.007,0.0001001,1.306e-05,0.0,0 STARLINK-3332,1 50825U 22001Y   24152.11770765  .00001306  00000-0  10010-3 0  9998,2 50825  53.2167 196.1851 0001198  85.1059 275.0070 15.08843720133910,6917.869,95.437,540.563,538.905,0.0
50825.0,STARLINK-3332,PAYLOAD,2024-05-31 12:21:48,15.08846722,0.000119,53.2165,194.4006,87.052,273.0608,0.00011734,1.58e-05,0.0,0 STARLINK-3332,1 50825U 22001Y   24152.51514495  .00001580  00000-0  11734-3 0  9996,2 50825  53.2165 194.4006 0001190  87.0520 273.0608 15.08846722132703,6917.86,95.437,540.548,538.902,0.0
50825.0,STARLINK-3332,PAYLOAD,2024-05-31 20:18:44,15.0884049,0.0001203,53.2167,192.9143,88.8432,271.2698,0.00018775,2.701e-05,0.0,0 STARLINK-3332,1 50825U 22001Y   24152.84634592  .00002701  00000-0  18775-3 0  9991,2 50825  53.2167 192.9143 0001203  88.8432 271.2698 15.08840490132756,6917.879,95.438,540.576,538.912,0.0
50825.0,STARLINK-3332,PAYLOAD,2024-06-01 09:01:49,15.08837709,0.0001312,53.2167,190.5353,90.4685,269.6458,2.8887e-05,1.72e-06,0.0,0 STARLINK-3332,1 50825U 22001Y   24153.37627102  .00000172  00000-0  28887-4 0  9995,2 50825  53.2167 190.5353 0001312  90.4685 269.6458 15.08837709134108,6917.887,95.438,540.66,538.845,0.0
50825.0,STARLINK-3332,PAYLOAD,2024-06-02 12:03:23,15.08839981,0.0001377,53.2171,185.4806,92.2913,267.8237,-7.73e-06,-4.11e-06,0.0,0 STARLINK-3332,1 50825U 22001Y   24154.50235015 -.00000411  00000-0 -77300-5 0  9992,2 50825  53.2171 185.4806 0001377  92.2913 267.8237 15.08839981134271,6917.88,95.438,540.698,538.793,0.0
50825.0,STARLINK-3332,PAYLOAD,2024-06-03 08:43:23,15.08837713,0.00013,53.2165,181.6147,86.9049,273.2092,6.0438e-05,6.74e-06,0.0,0 STARLINK-3332,1 50825U 22001Y   24155.36347042  .00000674  00000-0  60438-4 0  9993,2 50825  53.2165 181.6147 0001300  86.9049 273.2092 15.08837713133131,6917.887,95.438,540.652,538.853,0.0
50825.0,STARLINK-3332,PAYLOAD,2024-06-03 18:15:42,15.08842486,0.0001275,53.2164,179.83,84.7442,275.3695,8.0553e-05,9.94e-06,0.0,0 STARLINK-3332,1 50825U 22001Y   24155.76090697  .00000994  00000-0  80553-4 0  9993,2 50825  53.2164 179.8300 0001275  84.7442 275.3695 15.08842486134466,6917.873,95.437,540.62,538.856,0.0
50825.0,STARLINK-3332,PAYLOAD,2024-06-04 08:34:10,15.08837912,0.0001346,53.2171,177.1548,89.171,270.9436,6.0159e-05,6.7e-06,0.0,0 STARLINK-3332,1 50825U 22001Y   24156.35707137  .00000670  00000-0  60159-4 0  9994,2 50825  53.2171 177.1548 0001346  89.1710 270.9436 15.08837912134557,6917.887,95.438,540.683,538.821,0.0
50825.0,STARLINK-3332,PAYLOAD,2024-06-04 18:06:29,15.08842833,0.0001369,53.2171,175.3704,87.6794,272.4355,8.4799e-05,1.062e-05,0.0,0 STARLINK-3332,1 50825U 22001Y   24156.75450789  .00001062  00000-0  84799-4 0  9998,2 50825  53.2171 175.3704 0001369  87.6794 272.4355 15.08842833133342,6917.872,95.437,540.684,538.79,0.0
50825.0,STARLINK-3332,PAYLOAD,2024-06-05 06:49:35,15.08834498,0.0001402,53.2176,172.9917,87.4302,272.685,1.7891e-05,-3e-08,0.0,0 STARLINK-3332,1 50825U 22001Y   24157.28443544 -.00000003  00000-0  17891-4 0  9992,2 50825  53.2176 172.9917 0001402  87.4302 272.6850 15.08834498133426,6917.897,95.438,540.732,538.792,0.0
50825.0,STARLINK-3332,PAYLOAD,2024-06-05 17:57:16,15.08840516,0.0001381,53.2178,170.9098,85.4246,274.6904,-2.2547e-06,-3.24e-06,0.0,0 STARLINK-3332,1 50825U 22001Y   24157.74811301 -.00000324  00000-0 -22547-5 0  9995,2 50825  53.2178 170.9098 0001381  85.4246 274.6904 15.08840516134765,6917.879,95.438,540.699,538.788,0.0
50825.0,STARLINK-3332,PAYLOAD,2024-06-06 05:04:59,15.08833719,0.0001436,53.2176,168.8283,85.5288,274.5868,-3.4338e-07,-2.93e-06,0.0,0 STARLINK-3332,1 50825U 22001Y   24158.21179857 -.00000293  00000-0 -34338-6 0  9998,2 50825  53.2176 168.8283 0001436  85.5288 274.5868 15.08833719134836,6917.9,95.438,540.758,538.771,0.0
